{"type": "FeatureCollection", "features": [{"type": "Feature", "properties": {"norad_id": 25590, "name": "COSMOS 2361", "group": "musson", "lat": 31.469229074494162, "lon": 151.7871079916395, "alt_km": 984.7416764859145, "timestamp": "2025-12-23T11:34:48.434042+00:00", "meta": {"OBJECT_NAME": "COSMOS 2361", "OBJECT_ID": "1998-076A", "EPOCH": "2025-12-23T00:40:02.232768", "MEAN_MOTION": 13.73218643, "ECCENTRICITY": 0.0030242, "INCLINATION": 82.9343, "RA_OF_ASC_NODE": 336.4768, "ARG_OF_PERICENTER": 235.8106, "MEAN_ANOMALY": 186.1123, "EPHEMERIS_TYPE": 0, "CLASSIFICATION_TYPE": "U", "NORAD_CAT_ID": 25590, "ELEMENT_SET_NO": 999, "REV_AT_EPOCH": 35252, "BSTAR": 4.3075e-05, "MEAN_MOTION_DOT": 5.5e-07, "MEAN_MOTION_DDOT": 0}, "tle": {"line1": "1 25590U 98076A   25357.02780362  .00000055  00000+0  43075-4 0  9993", "line2": "2 25590  82.9343 336.4768 0030242 235.8106 186.1123 13.73218643352522"}}, "geometry": {"type": "Point", "coordinates": [151.7871079916395, 31.469229074494162]}}, {"type": "Feature", "properties": {"norad_id": 26818, "name": "COSMOS 2378", "group": "musson", "lat": -75.44682964702554, "lon": -159.67149075226646, "alt_km": 988.8120844094601, "timestamp": "2025-12-23T11:34:48.434061+00:00", "meta": {"OBJECT_NAME": "COSMOS 2378", "OBJECT_ID": "2001-023A", "EPOCH": "2025-12-23T01:54:20.928096", "MEAN_MOTION": 13.74142797, "ECCENTRICITY": 0.0033044, "INCLINATION": 82.9271, "RA_OF_ASC_NODE": 352.0575, "ARG_OF_PERICENTER": 175.8748, "MEAN_ANOMALY": 248.0135, "EPHEMERIS_TYPE": 0, "CLASSIFICATION_TYPE": "U", "NORAD_CAT_ID": 26818, "ELEMENT_SET_NO": 999, "REV_AT_EPOCH": 23065, "BSTAR": 2.667e-05, "MEAN_MOTION_DOT": 4e-07, "MEAN_MOTION_DDOT": 0}, "tle": {"line1": "1 26818U 01023A   25357.07940889  .00000040  00000+0  26670-4 0  9996", "line2": "2 26818  82.9271 352.0575 0033044 175.8748 248.0135 13.74142797230651"}}, "geometry": {"type": "Point", "coordinates": [-159.67149075226646, -75.44682964702554]}}, {"type": "Feature", "properties": {"norad_id": 27436, "name": "COSMOS 2389", "group": "musson", "lat": 36.222988243626524, "lon": 113.83249789126049, "alt_km": 991.3970594827069, "timestamp": "2025-12-23T11:34:48.434072+00:00", "meta": {"OBJECT_NAME": "COSMOS 2389", "OBJECT_ID": "2002-026A", "EPOCH": "2025-12-23T02:12:35.088192", "MEAN_MOTION": 13.75155716, "ECCENTRICITY": 0.004719, "INCLINATION": 82.9512, "RA_OF_ASC_NODE": 299.3212, "ARG_OF_PERICENTER": 32.5099, "MEAN_ANOMALY": 338.5882, "EPHEMERIS_TYPE": 0, "CLASSIFICATION_TYPE": "U", "NORAD_CAT_ID": 27436, "ELEMENT_SET_NO": 999, "REV_AT_EPOCH": 18291, "BSTAR": 5.6166e-05, "MEAN_MOTION_DOT": 7e-07, "MEAN_MOTION_DDOT": 0}, "tle": {"line1": "1 27436U 02026A   25357.09207278  .00000070  00000+0  56166-4 0  9993", "line2": "2 27436  82.9512 299.3212 0047190  32.5099 338.5882 13.75155716182917"}}, "geometry": {"type": "Point", "coordinates": [113.83249789126049, 36.222988243626524]}}, {"type": "Feature", "properties": {"norad_id": 27818, "name": "COSMOS 2398", "group": "musson", "lat": -11.804011596451684, "lon": -96.69999140972136, "alt_km": 997.2939779686194, "timestamp": "2025-12-23T11:34:48.434082+00:00", "meta": {"OBJECT_NAME": "COSMOS 2398", "OBJECT_ID": "2003-023A", "EPOCH": "2025-12-22T20:12:13.116672", "MEAN_MOTION": 13.72386809, "ECCENTRICITY": 0.00327146, "INCLINATION": 82.9483, "RA_OF_ASC_NODE": 265.2543, "ARG_OF_PERICENTER": 84.891, "MEAN_ANOMALY": 340.111, "EPHEMERIS_TYPE": 0, "CLASSIFICATION_TYPE": "U", "NORAD_CAT_ID": 27818, "ELEMENT_SET_NO": 999, "REV_AT_EPOCH": 12955, "BSTAR": 7.3840228e-05, "MEAN_MOTION_DOT": 8.3e-07, "MEAN_MOTION_DDOT": 0}, "tle": {"line1": "1 27818U 03023A   25356.84181848  .00000083  00000+0  73840-4 0  9993", "line2": "2 27818  82.9483 265.2543 0032714  84.8910 340.1110 13.72386809129555"}}, "geometry": {"type": "Point", "coordinates": [-96.69999140972136, -11.804011596451684]}}, {"type": "Feature", "properties": {"norad_id": 28380, "name": "COSMOS 2407", "group": "musson", "lat": -24.235568487216778, "lon": -158.25034069725513, "alt_km": 963.4725563854927, "timestamp": "2025-12-23T11:34:48.434092+00:00", "meta": {"OBJECT_NAME": "COSMOS 2407", "OBJECT_ID": "2004-028A", "EPOCH": "2025-12-23T02:02:35.797920", "MEAN_MOTION": 13.76314804, "ECCENTRICITY": 0.0039844, "INCLINATION": 82.9596, "RA_OF_ASC_NODE": 205.2329, "ARG_OF_PERICENTER": 26.5976, "MEAN_ANOMALY": 141.6851, "EPHEMERIS_TYPE": 0, "CLASSIFICATION_TYPE": "U", "NORAD_CAT_ID": 28380, "ELEMENT_SET_NO": 999, "REV_AT_EPOCH": 7565, "BSTAR": 4.0318e-05, "MEAN_MOTION_DOT": 5.5e-07, "MEAN_MOTION_DDOT": 0}, "tle": {"line1": "1 28380U 04028A   25357.08513655  .00000055  00000+0  40318-4 0  9999", "line2": "2 28380  82.9596 205.2329 0039844  26.5976 141.6851 13.76314804 75654"}}, "geometry": {"type": "Point", "coordinates": [-158.25034069725513, -24.235568487216778]}}, {"type": "Feature", "properties": {"norad_id": 28521, "name": "COSMOS 2414", "group": "musson", "lat": -33.00618310240465, "lon": 171.92498430190327, "alt_km": 966.2076329056872, "timestamp": "2025-12-23T11:34:48.434101+00:00", "meta": {"OBJECT_NAME": "COSMOS 2414", "OBJECT_ID": "2005-002A", "EPOCH": "2025-12-22T20:10:08.449248", "MEAN_MOTION": 13.87904286, "ECCENTRICITY": 0.00413602, "INCLINATION": 82.9488, "RA_OF_ASC_NODE": 177.0219, "ARG_OF_PERICENTER": 111.6486, "MEAN_ANOMALY": 248.9091, "EPHEMERIS_TYPE": 0, "CLASSIFICATION_TYPE": "U", "NORAD_CAT_ID": 28521, "ELEMENT_SET_NO": 999, "REV_AT_EPOCH": 5935, "BSTAR": 4.2903828e-05, "MEAN_MOTION_DOT": 6.8e-07, "MEAN_MOTION_DDOT": 0}, "tle": {"line1": "1 28521U 05002A   25356.84037557  .00000068  00000+0  42904-4 0  9991", "line2": "2 28521  82.9488 177.0219 0041360 111.6486 248.9091 13.87904286 59350"}}, "geometry": {"type": "Point", "coordinates": [171.92498430190327, -33.00618310240465]}}, {"type": "Feature", "properties": {"norad_id": 32052, "name": "COSMOS 2429", "group": "musson", "lat": -31.623843035358604, "lon": -28.96175689351829, "alt_km": 965.3267661022264, "timestamp": "2025-12-23T11:34:48.434112+00:00", "meta": {"OBJECT_NAME": "COSMOS 2429", "OBJECT_ID": "2007-038A", "EPOCH": "2025-12-22T16:31:30.511776", "MEAN_MOTION": 13.75150343, "ECCENTRICITY": 0.00386621, "INCLINATION": 82.9807, "RA_OF_ASC_NODE": 335.9742, "ARG_OF_PERICENTER": 10.5262, "MEAN_ANOMALY": 349.6695, "EPHEMERIS_TYPE": 0, "CLASSIFICATION_TYPE": "U", "NORAD_CAT_ID": 32052, "ELEMENT_SET_NO": 999, "REV_AT_EPOCH": 91739, "BSTAR": 3.7979129e-05, "MEAN_MOTION_DOT": 5.2e-07, "MEAN_MOTION_DDOT": 0}, "tle": {"line1": "1 32052U 07038A   25356.68854759  .00000052  00000+0  37979-4 0  9998", "line2": "2 32052  82.9807 335.9742 0038662  10.5262 349.6695 13.75150343917395"}}, "geometry": {"type": "Point", "coordinates": [-28.96175689351829, -31.623843035358604]}}, {"type": "Feature", "properties": {"norad_id": 35635, "name": "COSMOS 2454", "group": "musson", "lat": 80.93121657745792, "lon": -70.27320006126403, "alt_km": 912.1990447109574, "timestamp": "2025-12-23T11:34:48.434127+00:00", "meta": {"OBJECT_NAME": "COSMOS 2454", "OBJECT_ID": "2009-039A", "EPOCH": "2025-12-22T21:49:44.368320", "MEAN_MOTION": 13.89929927, "ECCENTRICITY": 0.002012, "INCLINATION": 82.9556, "RA_OF_ASC_NODE": 160.9355, "ARG_OF_PERICENTER": 46.3695, "MEAN_ANOMALY": 63.8353, "EPHEMERIS_TYPE": 0, "CLASSIFICATION_TYPE": "U", "NORAD_CAT_ID": 35635, "ELEMENT_SET_NO": 999, "REV_AT_EPOCH": 83291, "BSTAR": 5.0865e-05, "MEAN_MOTION_DOT": 7.9e-07, "MEAN_MOTION_DDOT": 0}, "tle": {"line1": "1 35635U 09039A   25356.90954130  .00000079  00000+0  50865-4 0  9998", "line2": "2 35635  82.9556 160.9355 0020120  46.3695  63.8353 13.89929927832916"}}, "geometry": {"type": "Point", "coordinates": [-70.27320006126403, 80.93121657745792]}}, {"type": "Feature", "properties": {"norad_id": 36519, "name": "COSMOS 2463", "group": "musson", "lat": 30.278140975668276, "lon": -165.3190892441594, "alt_km": 999.7703396778161, "timestamp": "2025-12-23T11:34:48.434144+00:00", "meta": {"OBJECT_NAME": "COSMOS 2463", "OBJECT_ID": "2010-017A", "EPOCH": "2025-12-23T04:10:52.501728", "MEAN_MOTION": 13.71650047, "ECCENTRICITY": 0.0034773, "INCLINATION": 82.9604, "RA_OF_ASC_NODE": 19.0443, "ARG_OF_PERICENTER": 258.0168, "MEAN_ANOMALY": 170.2922, "EPHEMERIS_TYPE": 0, "CLASSIFICATION_TYPE": "U", "NORAD_CAT_ID": 36519, "ELEMENT_SET_NO": 999, "REV_AT_EPOCH": 78380, "BSTAR": 3.4461e-05, "MEAN_MOTION_DOT": 4.6e-07, "MEAN_MOTION_DDOT": 0}, "tle": {"line1": "1 36519U 10017A   25357.17421877  .00000046  00000+0  34461-4 0  9993", "line2": "2 36519  82.9604  19.0443 0034773 258.0168 170.2922 13.71650047783803"}}, "geometry": {"type": "Point", "coordinates": [-165.3190892441594, 30.278140975668276]}}]}